IRIDIUM 26              
1 24903U 97043A   25070.91450185  .00000681  00000+0  22303-3 0  9995
2 24903  86.4009 151.4745 0002384  92.1847 267.9623 14.37018844442771
IRIDIUM 22              
1 24907U 97043E   25070.76441375  .00000641  00000+0  21483-3 0  9997
2 24907  86.4020 154.9878 0002167  95.4411 264.7033 14.35847015442784
DUMMY MASS 1            
1 24925U 97048A   25070.83658927  .00000909  00000+0  98742-4 0  9993
2 24925  86.3415 180.3036 0008587 121.6838 238.5225 14.86848555490665
DUMMY MASS 2            
1 24926U 97048B   25070.78254924  .00000916  00000+0  10017-3 0  9993
2 24926  86.3415 181.9159 0009089 131.8969 228.3032 14.86601365490439
IRIDIUM 29              
1 24944U 97051A   25070.82134007  .00000828  00000+0  27659-3 0  9993
2 24944  86.4031 184.6939 0001965  99.9900 260.1519 14.36331107439294
IRIDIUM 33              
1 24946U 97051C   25070.83692320  .00000579  00000+0  19717-3 0  9992
2 24946  86.3947 183.9404 0009095  47.7664 312.4302 14.34799319438785
IRIDIUM 28              
1 24948U 97051E   25070.85774905  .00000773  00000+0  25303-3 0  9990
2 24948  86.4038 182.2531 0002419  87.4029 272.7445 14.37263027439862
IRIDIUM 36              
1 24967U 97056C   25070.83569597  .00000941  00000+0  30832-3 0  9993
2 24967  86.3993 213.8430 0001977  87.7648 272.3776 14.37463863438232
